{"type":"FeatureCollection","features":[{"type":"Feature","properties":{"source":"DataMeet india-composite (MIT), simplified ~1 km, buffered ~5 km"},"geometry":{"type":"MultiPolygon","coordinates":[[[[68.12,23.782],[68.158,23.823],[68.168,23.865],[68.208,23.887],[68.242,23.95],[68.336,24.02],[68.705,24.021],[68.716,24.307],[68.737,24.338],[68.798,24.363],[68.853,24.356],[68.88,24.322],[68.929,24.35],[68.964,24.349],[69.011,24.285],[69.089,24.324],[69.194,24.29],[69.306,24.331],[69.49,24.318],[69.602,24.342],[69.75,24.221],[70.01,24.221],[70.09,24.341],[70.355,24.399],[70.553,24.47],[70.622,24.454],[70.647,24.431],[70.65,24.392],[70.618,24.346],[70.635,24.287],[70.719,24.266],[70.826,24.282],[70.84,24.332],[70.963,24.41],[70.937,24.605],[70.974,24.671],[71.021,24.694],[70.983,24.785],[70.892,24.918],[70.843,25.122],[70.714,25.245],[70.692,25.305],[70.618,25.379],[70.623,25.66],[70.539,25.634],[70.385,25.624],[70.248,25.668],[70.054,25.919],[70.034,26.088],[70.097,26.181],[70.123,26.254],[70.114,26.298],[70.135,26.379],[70.126,26.523],[70.054,26.55],[69.888,26.529],[69.81,26.541],[69.466,26.72],[69.434,26.806],[69.464,27.017],[69.543,27.207],[69.827,27.437],[69.897,27.532],[69.986,27.596],[70.094,27.838],[70.196,27.94],[70.267,27.977],[70.358,28.06],[70.506,28.087],[70.613,28.054],[70.719,27.949],[70.733,27.845],[70.779,27.773],[70.869,27.756],[71.195,27.884],[71.377,27.922],[71.657,27.928],[71.854,27.999],[71.885,28.149],[71.968,28.253],[72.099,28.35],[72.163,28.421],[72.254,28.69],[72.353,28.803],[72.71,28.992],[72.909,29.067],[72.962,29.179],[73.044,29.267],[73.236,29.592],[73.359,29.978],[73.58,30.066],[73.784,30.114],[73.917,30.218],[73.893,30.287],[73.842,30.327],[73.83,30.358],[73.84,30.39],[73.878,30.426],[73.895,30.52],[73.946,30.539],[73.99,30.578],[74.041,30.592],[74.058,30.645],[74.156,30.7],[74.222,30.806],[74.254,30.824],[74.332,30.93],[74.365,30.944],[74.389,30.982],[74.493,31.025],[74.51,31.058],[74.46,31.132],[74.477,31.322],[74.51,31.391],[74.545,31.416],[74.563,31.452],[74.526,31.492],[74.547,31.554],[74.514,31.58],[74.492,31.648],[74.446,31.686],[74.437,31.72],[74.469,31.776],[74.508,31.794],[74.57,31.923],[74.647,31.968],[74.779,32.007],[74.864,32.101],[74.937,32.116],[75.008,32.091],[75.112,32.13],[75.154,32.125],[75.187,32.167],[75.236,32.158],[75.296,32.254],[75.255,32.322],[75.159,32.364],[75.11,32.364],[75.052,32.43],[74.951,32.396],[74.843,32.44],[74.725,32.426],[74.654,32.451],[74.589,32.606],[74.595,32.639],[74.618,32.662],[74.609,32.705],[74.509,32.695],[74.441,32.732],[74.355,32.722],[74.309,32.769],[73.977,32.911],[73.904,32.984],[73.803,32.962],[73.596,33.061],[73.576,33.14],[73.62,33.185],[73.583,33.218],[73.565,33.298],[73.526,33.375],[73.571,33.474],[73.563,33.517],[73.58,33.547],[73.523,33.622],[73.55,33.708],[73.517,33.792],[73.539,33.881],[73.455,34.0],[73.448,34.197],[73.353,34.358],[73.35,34.391],[73.379,34.435],[73.387,34.536],[73.418,34.604],[73.559,34.639],[73.617,34.626],[73.618,34.689],[73.697,34.804],[73.825,34.862],[73.895,34.862],[73.99,34.924],[74.016,34.959],[74.012,34.998],[74.041,35.1],[73.991,35.125],[73.94,35.118],[73.902,35.158],[73.858,35.157],[73.804,35.188],[73.753,35.171],[73.721,35.18],[73.667,35.257],[73.643,35.351],[73.685,35.446],[73.719,35.479],[73.38,35.486],[73.35,35.555],[73.319,35.576],[73.297,35.619],[73.224,35.61],[73.09,35.687],[73.062,35.756],[73.071,35.789],[73.098,35.807],[73.086,35.816],[73.035,35.793],[72.987,35.809],[72.9,35.792],[72.857,35.825],[72.831,35.824],[72.804,35.801],[72.675,35.771],[72.542,35.809],[72.475,35.867],[72.46,35.897],[72.51,36.009],[72.471,36.078],[72.507,36.26],[72.571,36.314],[72.663,36.324],[72.696,36.356],[72.807,36.412],[72.837,36.489],[72.921,36.517],[72.938,36.547],[73.004,36.585],[73.02,36.613],[73.0,36.682],[73.036,36.74],[73.14,36.779],[73.262,36.772],[73.371,36.808],[73.51,36.781],[73.578,36.785],[73.618,36.762],[73.758,36.777],[73.657,36.825],[73.602,36.903],[73.621,36.956],[73.668,36.972],[73.801,36.951],[73.85,36.957],[73.933,36.933],[73.994,36.889],[74.037,36.885],[74.091,36.899],[74.108,36.943],[74.134,36.965],[74.257,36.961],[74.406,37.053],[74.526,37.056],[74.547,37.081],[74.683,37.145],[74.732,37.139],[74.761,37.095],[74.832,37.115],[74.866,37.109],[74.901,37.029],[75.023,37.075],[75.067,37.066],[75.148,37.084],[75.244,37.024],[75.285,37.033],[75.44,37.004],[75.467,36.97],[75.457,36.928],[75.483,36.883],[75.48,36.793],[75.53,36.829],[75.642,36.829],[75.757,36.798],[75.873,36.729],[75.98,36.638],[75.989,36.59],[76.061,36.486],[76.173,36.469],[76.259,36.373],[76.322,36.38],[76.412,36.354],[76.464,36.278],[76.487,36.267],[76.576,36.24],[76.683,36.239],[76.752,36.197],[76.805,36.129],[76.829,36.044],[76.829,35.933],[76.862,35.905],[77.028,35.866],[77.1,35.819],[77.123,35.783],[77.213,35.76],[77.374,35.763],[77.438,35.696],[77.477,35.701],[77.507,35.684],[77.554,35.6],[77.566,35.537],[77.604,35.516],[77.651,35.537],[77.695,35.515],[77.719,35.539],[77.808,35.572],[77.881,35.54],[77.912,35.602],[78.031,35.636],[78.113,35.605],[78.14,35.694],[78.18,35.717],[78.218,35.769],[78.381,35.78],[78.434,35.83],[78.52,35.814],[78.657,35.899],[78.768,35.916],[78.814,36.002],[78.841,36.022],[79.032,35.977],[79.078,35.997],[79.26,35.979],[79.343,36.038],[79.469,36.01],[79.516,35.915],[79.562,35.945],[79.604,35.935],[79.636,35.892],[79.636,35.83],[79.678,35.808],[79.687,35.761],[79.743,35.685],[79.832,35.675],[79.865,35.642],[79.963,35.683],[80.027,35.644],[80.049,35.602],[80.03,35.548],[80.062,35.502],[80.119,35.536],[80.133,35.59],[80.203,35.625],[80.277,35.617],[80.343,35.578],[80.381,35.574],[80.45,35.509],[80.456,35.402],[80.403,35.35],[80.327,35.321],[80.344,35.269],[80.33,35.187],[80.283,35.154],[80.276,35.123],[80.249,35.097],[80.284,34.992],[80.244,34.932],[80.247,34.865],[80.175,34.829],[80.1,34.663],[79.997,34.651],[79.957,34.624],[79.903,34.64],[79.849,34.607],[79.861,34.528],[79.822,34.439],[79.678,34.405],[79.585,34.412],[79.612,34.357],[79.65,34.324],[79.655,34.223],[79.631,34.194],[79.538,34.156],[79.53,34.104],[79.48,34.07],[79.44,33.969],[79.367,33.944],[79.303,33.966],[79.194,33.969],[79.1,33.94],[78.986,33.981],[78.954,33.971],[78.983,33.932],[79.01,33.847],[79.073,33.776],[79.071,33.717],[79.127,33.671],[79.14,33.638],[79.13,33.597],[79.106,33.574],[78.963,33.562],[78.988,33.397],[79.062,33.356],[79.081,33.303],[79.118,33.278],[79.136,33.242],[79.218,33.288],[79.447,33.22],[79.458,33.189],[79.447,33.126],[79.412,33.082],[79.39,33.009],[79.438,32.974],[79.45,32.944],[79.511,32.909],[79.517,32.838],[79.601,32.783],[79.611,32.709],[79.589,32.647],[79.493,32.571],[79.439,32.477],[79.407,32.47],[79.315,32.494],[79.223,32.466],[79.173,32.442],[79.172,32.402],[79.131,32.331],[79.1,32.321],[79.037,32.334],[78.974,32.286],[78.809,32.372],[78.739,32.449],[78.708,32.561],[78.721,32.606],[78.711,32.616],[78.684,32.608],[78.675,32.578],[78.649,32.558],[78.58,32.554],[78.549,32.567],[78.525,32.54],[78.465,32.526],[78.517,32.463],[78.521,32.394],[78.589,32.249],[78.632,32.232],[78.657,32.171],[78.719,32.149],[78.769,32.048],[78.806,32.036],[78.827,32.01],[78.817,31.918],[78.792,31.881],[78.785,31.821],[78.761,31.793],[78.785,31.731],[78.837,31.714],[78.897,31.608],[78.884,31.576],[78.807,31.505],[78.847,31.445],[78.812,31.356],[78.883,31.36],[78.91,31.402],[78.969,31.415],[78.984,31.463],[79.055,31.505],[79.122,31.499],[79.205,31.435],[79.221,31.396],[79.276,31.366],[79.299,31.278],[79.343,31.246],[79.357,31.184],[79.448,31.143],[79.469,31.078],[79.537,31.072],[79.581,31.0],[79.619,31.0],[79.658,31.032],[79.704,31.023],[79.752,31.056],[79.829,31.022],[79.889,31.016],[79.953,30.938],[80.033,30.909],[80.12,30.839],[80.185,30.857],[80.232,30.812],[80.276,30.796],[80.299,30.717],[80.266,30.623],[80.338,30.609],[80.371,30.572],[80.436,30.57],[80.553,30.506],[80.627,30.517],[80.762,30.442],[80.828,30.369],[80.925,30.35],[80.956,30.319],[81.0,30.318],[81.076,30.268],[81.095,30.205],[81.076,30.167],[81.008,30.137],[80.928,30.127],[80.91,30.09],[80.803,30.018],[80.775,29.964],[80.692,29.911],[80.626,29.908],[80.595,29.824],[80.523,29.755],[80.448,29.753],[80.425,29.718],[80.469,29.65],[80.454,29.577],[80.322,29.407],[80.327,29.372],[80.367,29.319],[80.345,29.189],[80.302,29.102],[80.246,29.07],[80.187,29.075],[80.182,28.988],[80.126,28.933],[80.111,28.907],[80.116,28.879],[80.233,28.806],[80.282,28.797],[80.304,28.762],[80.353,28.735],[80.381,28.683],[80.455,28.679],[80.52,28.736],[80.586,28.735],[80.638,28.695],[80.698,28.682],[80.744,28.617],[80.797,28.607],[80.825,28.563],[80.912,28.555],[80.945,28.519],[81.039,28.497],[81.099,28.432],[81.234,28.405],[81.279,28.348],[81.284,28.308],[81.362,28.225],[81.471,28.205],[81.525,28.147],[81.533,28.109],[81.642,28.049],[81.723,28.032],[81.898,27.909],[81.952,27.976],[82.078,27.973],[82.148,27.91],[82.232,27.887],[82.46,27.732],[82.724,27.77],[82.753,27.745],[82.76,27.695],[82.805,27.603],[82.796,27.552],[82.94,27.55],[82.983,27.512],[83.039,27.499],[83.202,27.502],[83.308,27.418],[83.322,27.384],[83.344,27.407],[83.341,27.497],[83.376,27.528],[83.627,27.518],[83.785,27.44],[83.83,27.492],[84.018,27.492],[84.074,27.561],[84.165,27.565],[84.2,27.524],[84.285,27.493],[84.324,27.431],[84.65,27.379],[84.737,27.233],[84.718,27.071],[84.747,27.06],[84.843,27.068],[84.912,27.018],[84.987,27.004],[85.027,26.95],[85.097,26.912],[85.215,26.914],[85.239,26.883],[85.24,26.805],[85.322,26.794],[85.393,26.839],[85.44,26.835],[85.554,26.906],[85.637,26.923],[85.77,26.837],[85.783,26.685],[85.839,26.657],[85.883,26.647],[85.938,26.697],[86.025,26.717],[86.221,26.656],[86.341,26.668],[86.511,26.591],[86.565,26.583],[86.602,26.538],[86.726,26.49],[86.765,26.509],[86.842,26.496],[86.906,26.559],[86.982,26.577],[87.02,26.631],[87.079,26.635],[87.119,26.603],[87.138,26.48],[87.176,26.455],[87.277,26.457],[87.32,26.421],[87.348,26.454],[87.464,26.49],[87.566,26.465],[87.611,26.437],[87.662,26.483],[87.726,26.468],[87.771,26.514],[87.836,26.502],[87.886,26.537],[87.922,26.524],[87.974,26.453],[88.015,26.437],[88.039,26.452],[88.05,26.553],[88.114,26.657],[88.136,26.742],[88.126,26.841],[88.091,26.876],[88.071,26.959],[88.0,27.004],[87.937,27.123],[87.967,27.182],[87.964,27.229],[88.006,27.336],[87.992,27.378],[88.013,27.445],[87.996,27.511],[88.039,27.611],[88.097,27.685],[88.11,27.757],[88.139,27.783],[88.124,27.831],[88.072,27.899],[88.072,27.937],[88.122,28.011],[88.181,28.004],[88.24,28.019],[88.271,28.007],[88.328,28.034],[88.38,28.033],[88.437,28.059],[88.472,28.1],[88.509,28.103],[88.533,28.128],[88.633,28.168],[88.666,28.159],[88.694,28.126],[88.778,28.124],[88.882,28.035],[88.886,27.966],[88.913,27.94],[88.938,27.853],[88.909,27.802],[88.917,27.74],[88.893,27.694],[88.896,27.652],[88.857,27.615],[88.837,27.552],[88.83,27.473],[88.846,27.438],[88.89,27.427],[88.926,27.377],[88.957,27.362],[88.971,27.323],[88.951,27.256],[88.9,27.215],[88.844,27.205],[88.839,27.178],[88.913,27.137],[88.923,27.044],[88.999,26.985],[89.041,26.987],[89.126,26.931],[89.155,26.859],[89.246,26.863],[89.3,26.898],[89.385,26.912],[89.464,26.884],[89.491,26.856],[89.575,26.86],[89.676,26.82],[89.699,26.783],[89.767,26.782],[89.814,26.752],[89.854,26.787],[89.905,26.775],[90.038,26.779],[90.138,26.809],[90.202,26.9],[90.291,26.9],[90.352,26.951],[90.433,26.952],[90.567,26.863],[90.725,26.82],[90.942,26.829],[90.988,26.845],[91.038,26.837],[91.095,26.872],[91.245,26.862],[91.335,26.833],[91.404,26.89],[91.503,26.845],[91.623,26.871],[91.685,26.859],[91.792,26.905],[91.836,26.958],[91.892,26.971],[92.002,26.907],[92.05,26.899],[92.069,26.956],[92.005,27.022],[91.982,27.073],[91.978,27.18],[92.01,27.217],[91.989,27.268],[92.02,27.306],[91.992,27.418],[91.766,27.415],[91.638,27.435],[91.52,27.563],[91.512,27.633],[91.526,27.678],[91.585,27.73],[91.608,27.797],[91.638,27.811],[91.853,27.811],[91.925,27.774],[91.961,27.823],[92.043,27.83],[92.238,27.938],[92.321,27.914],[92.35,27.862],[92.416,27.884],[92.455,27.874],[92.549,27.923],[92.582,27.96],[92.631,27.964],[92.68,28.003],[92.681,28.019],[92.628,28.039],[92.607,28.07],[92.645,28.189],[92.707,28.217],[92.74,28.212],[92.771,28.235],[92.826,28.228],[92.889,28.251],[92.92,28.304],[92.984,28.341],[93.041,28.352],[93.104,28.397],[93.121,28.471],[93.156,28.528],[93.226,28.589],[93.34,28.641],[93.396,28.702],[93.622,28.735],[93.659,28.72],[93.71,28.723],[93.767,28.781],[93.873,28.804],[94.006,28.897],[94.127,28.944],[94.158,28.982],[94.226,28.984],[94.278,29.03],[94.227,29.087],[94.261,29.19],[94.344,29.203],[94.436,29.259],[94.53,29.277],[94.601,29.339],[94.689,29.365],[94.769,29.324],[94.793,29.267],[94.847,29.233],[94.956,29.205],[95.005,29.223],[95.122,29.186],[95.157,29.145],[95.214,29.157],[95.246,29.144],[95.285,29.184],[95.369,29.18],[95.381,29.213],[95.42,29.241],[95.468,29.229],[95.555,29.24],[95.568,29.268],[95.598,29.285],[95.655,29.264],[95.693,29.274],[95.699,29.33],[95.798,29.395],[95.849,29.402],[95.882,29.378],[95.95,29.423],[96.01,29.416],[96.054,29.433],[96.157,29.391],[96.195,29.327],[96.302,29.279],[96.35,29.209],[96.346,29.16],[96.407,29.111],[96.416,29.07],[96.481,29.029],[96.494,28.989],[96.537,28.987],[96.563,28.967],[96.572,28.89],[96.627,28.852],[96.679,28.752],[96.684,28.654],[96.739,28.654],[96.812,28.554],[96.894,28.52],[96.952,28.396],[96.995,28.38],[97.067,28.42],[97.144,28.409],[97.267,28.334],[97.318,28.273],[97.393,28.242],[97.409,28.213],[97.408,28.157],[97.382,28.109],[97.445,28.02],[97.424,27.966],[97.428,27.881],[97.397,27.838],[97.359,27.828],[97.275,27.856],[97.151,27.749],[97.117,27.693],[97.055,27.691],[97.014,27.627],[96.952,27.603],[96.985,27.513],[96.964,27.467],[97.005,27.429],[97.031,27.361],[97.066,27.341],[97.209,27.162],[97.21,27.124],[97.163,27.048],[97.05,27.044],[96.967,27.107],[96.842,27.142],[96.808,27.193],[96.797,27.272],[96.77,27.302],[96.723,27.315],[96.641,27.312],[96.532,27.237],[96.444,27.254],[96.395,27.236],[96.319,27.242],[96.279,27.222],[96.236,27.227],[96.058,27.141],[95.972,27.009],[95.884,26.965],[95.826,26.964],[95.802,26.933],[95.787,26.869],[95.751,26.84],[95.719,26.832],[95.676,26.846],[95.65,26.787],[95.625,26.766],[95.557,26.778],[95.52,26.714],[95.458,26.658],[95.317,26.603],[95.24,26.609],[95.204,26.589],[95.135,26.463],[95.182,26.385],[95.177,26.248],[95.192,26.208],[95.169,26.134],[95.224,26.105],[95.233,26.058],[95.161,25.95],[95.06,25.882],[95.098,25.814],[95.096,25.744],[94.978,25.637],[94.936,25.533],[94.876,25.514],[94.846,25.462],[94.808,25.437],[94.722,25.419],[94.684,25.368],[94.63,25.236],[94.786,25.147],[94.794,25.03],[94.755,24.965],[94.761,24.92],[94.678,24.816],[94.678,24.747],[94.647,24.685],[94.59,24.656],[94.548,24.563],[94.497,24.535],[94.441,24.389],[94.372,24.29],[94.308,24.135],[94.285,24.019],[94.214,23.89],[94.199,23.822],[94.147,23.788],[94.113,23.785],[94.067,23.838],[94.026,23.843],[93.992,23.878],[93.918,23.897],[93.789,23.881],[93.727,23.957],[93.651,23.96],[93.612,23.915],[93.513,23.893],[93.445,23.925],[93.446,23.766],[93.488,23.686],[93.469,23.639],[93.468,23.532],[93.438,23.448],[93.45,23.375],[93.414,23.285],[93.438,23.222],[93.425,23.165],[93.434,23.123],[93.399,23.085],[93.392,23.041],[93.319,22.964],[93.22,22.962],[93.19,22.98],[93.213,22.902],[93.172,22.862],[93.15,22.788],[93.147,22.682],[93.189,22.603],[93.173,22.547],[93.185,22.486],[93.234,22.437],[93.25,22.25],[93.21,22.208],[93.186,22.141],[93.155,22.126],[93.101,22.13],[93.101,22.074],[93.046,22.052],[93.055,21.987],[93.043,21.955],[92.994,21.932],[92.959,21.936],[92.915,21.892],[92.871,21.906],[92.847,21.977],[92.778,22.057],[92.741,22.076],[92.724,21.988],[92.662,21.942],[92.591,21.929],[92.555,21.961],[92.547,22.058],[92.513,22.121],[92.517,22.15],[92.544,22.178],[92.532,22.312],[92.502,22.403],[92.502,22.499],[92.472,22.552],[92.487,22.599],[92.471,22.691],[92.427,22.729],[92.408,22.843],[92.323,22.925],[92.339,23.044],[92.309,23.092],[92.316,23.132],[92.297,23.237],[92.331,23.286],[92.307,23.396],[92.269,23.458],[92.26,23.554],[92.237,23.607],[92.187,23.61],[92.16,23.661],[92.093,23.601],[92.037,23.597],[91.997,23.616],[92.013,23.453],[91.97,23.393],[91.886,23.373],[91.864,23.323],[91.821,23.284],[91.861,23.135],[91.883,23.107],[91.88,23.069],[91.809,22.988],[91.737,22.94],[91.675,22.936],[91.653,22.901],[91.621,22.887],[91.549,22.924],[91.501,22.972],[91.48,23.076],[91.449,23.13],[91.465,23.05],[91.414,23.01],[91.369,23.014],[91.306,23.074],[91.274,23.149],[91.276,23.238],[91.242,23.305],[91.206,23.458],[91.16,23.491],[91.11,23.603],[91.109,23.755],[91.132,23.786],[91.18,23.799],[91.194,23.842],[91.18,23.875],[91.187,23.946],[91.275,24.039],[91.336,24.041],[91.324,24.108],[91.339,24.143],[91.416,24.166],[91.557,24.128],[91.585,24.146],[91.605,24.191],[91.606,24.247],[91.656,24.283],[91.7,24.27],[91.749,24.297],[91.819,24.265],[91.855,24.274],[91.886,24.259],[91.87,24.337],[91.885,24.373],[91.942,24.426],[91.984,24.442],[92.084,24.426],[92.109,24.467],[92.112,24.55],[92.148,24.577],[92.185,24.579],[92.234,24.768],[92.193,24.83],[92.189,24.926],[92.216,24.948],[92.303,24.966],[92.414,24.905],[92.374,24.944],[92.371,24.992],[92.205,25.048],[92.053,25.138],[91.979,25.118],[91.916,25.132],[91.79,25.115],[91.76,25.092],[91.721,25.097],[91.641,25.073],[91.564,25.11],[91.461,25.085],[91.427,25.109],[91.255,25.147],[91.079,25.148],[90.866,25.108],[90.778,25.125],[90.732,25.105],[90.637,25.125],[90.52,25.127],[90.438,25.095],[90.353,25.116],[90.31,25.146],[90.104,25.176],[89.916,25.252],[89.882,25.236],[89.824,25.245],[89.792,25.274],[89.77,25.381],[89.83,25.616],[89.808,25.683],[89.781,25.715],[89.786,25.762],[89.767,25.809],[89.796,25.905],[89.772,25.971],[89.728,26.018],[89.732,26.065],[89.706,26.111],[89.682,26.113],[89.7,26.07],[89.693,26.037],[89.628,26.001],[89.623,25.949],[89.596,25.923],[89.544,25.917],[89.495,25.949],[89.418,25.963],[89.345,25.959],[89.221,26.026],[89.2,26.079],[89.12,26.103],[89.086,26.171],[89.093,26.214],[89.056,26.192],[88.955,26.19],[88.921,26.208],[88.896,26.187],[88.84,26.181],[88.809,26.193],[88.765,26.244],[88.677,26.214],[88.64,26.22],[88.616,26.261],[88.638,26.354],[88.588,26.4],[88.56,26.406],[88.574,26.359],[88.556,26.321],[88.471,26.302],[88.437,26.27],[88.405,26.264],[88.382,26.182],[88.22,26.115],[88.233,26.015],[88.215,25.986],[88.17,25.962],[88.15,25.906],[88.16,25.846],[88.235,25.86],[88.299,25.849],[88.346,25.781],[88.491,25.699],[88.5,25.635],[88.533,25.621],[88.578,25.565],[88.622,25.565],[88.676,25.539],[88.752,25.575],[88.836,25.567],[88.877,25.505],[88.891,25.387],[88.929,25.382],[88.956,25.354],[89.029,25.349],[89.058,25.312],[89.052,25.24],[89.011,25.214],[88.986,25.144],[88.938,25.118],[88.845,25.139],[88.81,25.121],[88.739,25.128],[88.694,25.157],[88.628,25.155],[88.568,25.125],[88.512,25.143],[88.496,25.113],[88.5,25.023],[88.436,24.912],[88.397,24.895],[88.387,24.862],[88.347,24.823],[88.222,24.843],[88.186,24.809],[88.173,24.771],[88.114,24.73],[88.077,24.665],[88.177,24.547],[88.227,24.505],[88.299,24.483],[88.354,24.431],[88.46,24.427],[88.635,24.357],[88.712,24.362],[88.783,24.296],[88.782,24.185],[88.796,24.143],[88.771,24.103],[88.818,23.97],[88.785,23.935],[88.766,23.873],[88.688,23.824],[88.652,23.818],[88.616,23.709],[88.64,23.659],[88.687,23.638],[88.719,23.564],[88.759,23.549],[88.802,23.555],[88.846,23.519],[88.845,23.434],[88.808,23.395],[88.815,23.36],[88.795,23.303],[88.92,23.284],[88.947,23.266],[88.989,23.273],[89.044,23.227],[89.019,23.151],[88.921,23.076],[88.934,23.044],[88.927,22.99],[89.018,22.854],[89.005,22.778],[88.971,22.749],[89.012,22.703],[88.993,22.654],[89.01,22.621],[88.998,22.583],[89.045,22.479],[89.037,22.349],[89.068,22.321],[89.085,22.253],[89.148,22.162],[89.138,22.125],[89.088,22.078],[89.126,21.992],[89.108,21.913],[89.076,21.888],[89.072,21.795],[89.145,21.657],[89.142,21.611],[89.043,21.552],[88.945,21.569],[88.941,21.539],[88.916,21.515],[88.837,21.515],[88.8,21.535],[88.726,21.526],[88.685,21.545],[88.667,21.573],[88.67,21.625],[88.647,21.656],[88.644,21.603],[88.612,21.546],[88.534,21.5],[88.458,21.515],[88.432,21.555],[88.391,21.542],[88.356,21.562],[88.3,21.507],[88.166,21.524],[88.137,21.542],[88.126,21.575],[88.024,21.604],[87.994,21.636],[88.013,21.751],[88.079,21.875],[88.042,21.867],[88.009,21.818],[87.823,21.65],[87.723,21.612],[87.57,21.588],[87.423,21.531],[87.388,21.502],[87.226,21.502],[87.143,21.465],[86.952,21.307],[86.88,21.177],[86.878,21.146],[87.024,20.811],[87.052,20.768],[87.109,20.751],[87.115,20.7],[86.892,20.553],[86.798,20.462],[86.789,20.444],[86.853,20.38],[86.839,20.317],[86.705,20.217],[86.594,20.164],[86.484,20.033],[86.463,19.973],[86.405,19.915],[86.231,19.847],[85.924,19.775],[85.634,19.675],[85.369,19.538],[85.181,19.409],[85.114,19.336],[84.946,19.219],[84.876,19.153],[84.729,18.935],[84.632,18.835],[84.595,18.757],[84.508,18.678],[84.397,18.521],[84.18,18.322],[84.161,18.271],[83.975,18.17],[83.722,18.06],[83.503,17.872],[83.382,17.69],[83.243,17.549],[83.057,17.468],[83.02,17.43],[82.627,17.241],[82.496,17.15],[82.366,17.026],[82.412,16.97],[82.421,16.904],[82.4,16.764],[82.42,16.723],[82.374,16.644],[82.334,16.52],[82.251,16.496],[81.98,16.35],[81.891,16.332],[81.725,16.258],[81.692,16.259],[81.663,16.283],[81.517,16.305],[81.413,16.294],[81.304,16.237],[81.249,16.16],[81.253,16.127],[81.199,16.005],[81.196,15.948],[81.066,15.821],[81.074,15.734],[80.958,15.664],[80.805,15.659],[80.766,15.723],[80.733,15.826],[80.679,15.838],[80.545,15.8],[80.403,15.73],[80.308,15.644],[80.25,15.447],[80.155,15.313],[80.134,15.256],[80.139,15.198],[80.099,15.072],[80.142,14.829],[80.246,14.582],[80.217,14.329],[80.178,14.183],[80.198,14.031],[80.305,13.795],[80.286,13.652],[80.346,13.487],[80.376,13.455],[80.396,13.28],[80.347,13.121],[80.352,13.076],[80.328,13.045],[80.305,12.768],[80.206,12.503],[80.204,12.448],[79.919,12.019],[79.808,11.58],[79.888,11.363],[79.907,11.202],[79.9,10.825],[79.927,10.292],[79.896,10.245],[79.866,10.231],[79.784,10.224],[79.744,10.264],[79.631,10.281],[79.583,10.262],[79.42,10.269],[79.328,10.22],[79.323,10.187],[79.281,10.138],[79.28,10.112],[79.316,10.054],[79.312,10.016],[79.195,9.899],[79.165,9.826],[79.039,9.685],[78.979,9.567],[78.963,9.467],[79.081,9.346],[79.219,9.321],[79.239,9.287],[79.229,9.25],[79.096,9.209],[78.974,9.22],[78.921,9.199],[78.867,9.201],[78.767,9.167],[78.684,9.109],[78.599,9.08],[78.437,9.062],[78.29,8.954],[78.246,8.921],[78.221,8.871],[78.219,8.832],[78.25,8.795],[78.248,8.749],[78.184,8.672],[78.18,8.486],[78.115,8.398],[78.11,8.344],[77.922,8.23],[77.84,8.199],[77.812,8.158],[77.768,8.13],[77.617,8.094],[77.589,8.042],[77.559,8.025],[77.297,8.077],[76.983,8.31],[76.605,8.79],[76.502,8.877],[76.272,9.459],[76.239,9.741],[76.187,9.97],[76.132,10.092],[76.064,10.333],[75.865,10.768],[75.779,11.105],[75.685,11.332],[75.651,11.403],[75.577,11.452],[75.552,11.553],[75.491,11.671],[75.358,11.811],[75.32,11.826],[75.221,11.958],[75.183,11.958],[75.157,11.98],[75.004,12.347],[74.934,12.467],[74.778,12.822],[74.737,13.044],[74.647,13.331],[74.617,13.625],[74.545,13.892],[74.466,13.969],[74.419,14.176],[74.375,14.27],[74.35,14.379],[74.309,14.468],[74.265,14.497],[74.22,14.611],[74.22,14.666],[74.182,14.67],[74.08,14.739],[74.043,14.79],[74.057,14.855],[73.998,14.892],[73.985,14.969],[73.955,14.985],[73.941,15.018],[73.869,15.059],[73.865,15.097],[73.894,15.156],[73.852,15.308],[73.814,15.316],[73.742,15.382],[73.74,15.45],[73.652,15.678],[73.607,15.721],[73.609,15.77],[73.556,15.864],[73.471,15.909],[73.44,16.005],[73.41,16.036],[73.394,16.165],[73.314,16.413],[73.268,16.504],[73.28,16.666],[73.229,16.88],[73.233,16.955],[73.209,17.016],[73.221,17.14],[73.19,17.171],[73.188,17.217],[73.143,17.284],[73.163,17.338],[73.123,17.392],[73.14,17.478],[73.092,17.543],[73.096,17.582],[73.066,17.675],[73.081,17.718],[72.945,18.036],[72.923,18.126],[72.934,18.162],[72.884,18.205],[72.894,18.306],[72.873,18.333],[72.845,18.454],[72.861,18.559],[72.824,18.622],[72.807,18.695],[72.822,18.82],[72.873,18.85],[72.863,18.876],[72.822,18.846],[72.784,18.849],[72.744,18.922],[72.741,18.957],[72.766,18.998],[72.777,19.077],[72.731,19.143],[72.738,19.317],[72.709,19.364],[72.703,19.487],[72.667,19.581],[72.673,19.617],[72.644,19.768],[72.606,19.828],[72.633,19.879],[72.618,19.95],[72.666,19.997],[72.658,20.076],[72.69,20.133],[72.706,20.304],[72.749,20.38],[72.777,20.4],[72.785,20.462],[72.837,20.52],[72.848,20.585],[72.778,20.809],[72.746,20.88],[72.711,20.912],[72.679,21.041],[72.641,21.03],[72.609,21.041],[72.573,21.127],[72.571,21.178],[72.59,21.219],[72.548,21.302],[72.596,21.383],[72.599,21.464],[72.64,21.532],[72.739,21.632],[72.618,21.635],[72.532,21.613],[72.489,21.648],[72.478,21.721],[72.508,21.762],[72.533,21.846],[72.467,21.897],[72.458,21.98],[72.501,22.167],[72.547,22.236],[72.44,22.155],[72.387,22.165],[72.359,22.205],[72.351,22.197],[72.346,22.088],[72.288,22.001],[72.3,21.81],[72.286,21.743],[72.326,21.713],[72.355,21.616],[72.314,21.551],[72.278,21.427],[72.161,21.283],[72.144,21.242],[72.161,21.192],[72.145,21.163],[72.028,21.088],[71.929,21.068],[71.828,20.991],[71.733,20.971],[71.545,20.895],[71.513,20.851],[71.462,20.822],[71.339,20.796],[71.168,20.712],[71.036,20.681],[70.993,20.652],[70.804,20.644],[70.425,20.806],[70.125,21.015],[69.967,21.166],[69.583,21.585],[69.54,21.606],[69.223,21.88],[68.936,22.185],[68.887,22.295],[68.939,22.436],[69.055,22.527],[69.12,22.505],[69.128,22.451],[69.19,22.468],[69.229,22.452],[69.25,22.39],[69.218,22.326],[69.236,22.313],[69.281,22.331],[69.314,22.375],[69.445,22.375],[69.464,22.405],[69.465,22.447],[69.494,22.473],[69.533,22.47],[69.599,22.415],[69.619,22.415],[69.71,22.521],[69.749,22.52],[69.792,22.48],[69.859,22.5],[69.913,22.564],[69.97,22.592],[70.038,22.61],[70.08,22.594],[70.148,22.605],[70.206,22.676],[70.217,22.745],[70.272,22.782],[70.3,22.888],[70.249,22.91],[70.175,22.898],[70.108,22.859],[70.065,22.867],[69.948,22.846],[69.794,22.783],[69.757,22.714],[69.714,22.688],[69.564,22.711],[69.531,22.734],[69.442,22.726],[69.302,22.779],[69.179,22.789],[68.795,23.019],[68.732,23.037],[68.599,23.131],[68.53,23.221],[68.537,23.254],[68.578,23.29],[68.535,23.317],[68.486,23.405],[68.411,23.447],[68.378,23.493],[68.377,23.54],[68.257,23.507],[68.18,23.536],[68.132,23.586],[68.124,23.63],[68.157,23.683],[68.118,23.716],[68.12,23.782]],[[88.621,21.736],[88.641,21.714],[88.645,21.709],[88.648,21.739],[88.621,21.736]],[[93.408,23.973],[93.388,24.013],[93.382,23.991],[93.408,23.973]]],[[[94.334,13.475],[94.352,13.436],[94.329,13.377],[94.289,13.363],[94.242,13.385],[94.227,13.425],[94.253,13.483],[94.293,13.498],[94.334,13.475]]],[[[93.59,7.293],[93.613,7.408],[93.671,7.429],[93.692,7.485],[93.739,7.491],[93.813,7.412],[93.825,7.37],[93.761,7.265],[93.803,7.287],[93.873,7.287],[93.94,7.224],[93.946,7.115],[93.971,7.058],[94.012,7.013],[94.007,6.952],[93.959,6.873],[93.975,6.837],[93.959,6.787],[93.861,6.706],[93.826,6.706],[93.782,6.732],[93.775,6.794],[93.687,6.966],[93.645,6.974],[93.623,6.999],[93.611,7.132],[93.64,7.204],[93.59,7.293]]],[[[93.882,12.323],[93.921,12.289],[93.912,12.226],[93.877,12.203],[93.819,12.213],[93.795,12.249],[93.807,12.303],[93.838,12.326],[93.882,12.323]]],[[[93.569,8.568],[93.579,8.601],[93.607,8.62],[93.645,8.614],[93.666,8.587],[93.695,8.456],[93.672,8.392],[93.646,8.37],[93.608,8.372],[93.581,8.4],[93.569,8.568]]],[[[93.329,7.838],[93.26,7.951],[93.285,8.029],[93.373,8.071],[93.448,8.028],[93.415,8.171],[93.423,8.206],[93.5,8.28],[93.589,8.26],[93.608,8.225],[93.6,8.178],[93.63,8.152],[93.663,8.057],[93.638,7.999],[93.646,7.967],[93.63,7.897],[93.578,7.878],[93.508,7.932],[93.514,7.865],[93.489,7.831],[93.457,7.82],[93.416,7.841],[93.379,7.828],[93.329,7.838]],[[93.454,8.006],[93.454,8.009],[93.454,8.007],[93.454,8.006]]],[[[93.041,8.395],[93.011,8.431],[93.023,8.485],[93.056,8.51],[93.098,8.504],[93.131,8.443],[93.117,8.396],[93.169,8.391],[93.195,8.363],[93.189,8.295],[93.249,8.312],[93.288,8.287],[93.305,8.222],[93.294,8.189],[93.204,8.146],[93.09,8.189],[93.043,8.263],[93.072,8.383],[93.041,8.395]]],[[[92.489,11.597],[92.508,11.637],[92.554,11.645],[92.526,11.673],[92.472,11.854],[92.502,11.938],[92.542,11.981],[92.573,11.99],[92.582,12.119],[92.624,12.231],[92.666,12.272],[92.667,12.479],[92.651,12.517],[92.661,12.575],[92.644,12.614],[92.694,12.683],[92.674,12.729],[92.632,12.757],[92.608,12.853],[92.63,12.901],[92.628,12.972],[92.675,13.034],[92.652,13.117],[92.694,13.152],[92.768,13.132],[92.786,13.242],[92.78,13.317],[92.806,13.419],[92.833,13.446],[92.834,13.49],[92.898,13.571],[92.953,13.587],[92.968,13.605],[92.941,13.641],[92.955,13.685],[93.006,13.716],[93.04,13.718],[93.07,13.693],[93.088,13.636],[93.095,13.456],[93.126,13.417],[93.123,13.375],[93.146,13.325],[93.12,13.281],[93.094,13.176],[93.089,13.043],[93.034,12.901],[92.992,12.877],[93.012,12.814],[93.007,12.784],[93.041,12.709],[93.018,12.619],[93.039,12.529],[93.015,12.447],[93.019,12.399],[92.986,12.337],[92.987,12.251],[92.996,12.195],[93.02,12.211],[93.034,12.278],[93.067,12.303],[93.125,12.307],[93.16,12.275],[93.145,12.086],[93.077,12.002],[93.13,11.82],[93.062,11.76],[92.978,11.803],[92.983,11.88],[92.881,11.985],[92.92,12.063],[92.912,12.149],[92.869,12.113],[92.823,12.003],[92.817,11.977],[92.85,11.896],[92.809,11.678],[92.812,11.604],[92.765,11.453],[92.744,11.429],[92.749,11.375],[92.776,11.352],[92.784,11.309],[92.759,11.232],[92.714,11.188],[92.676,11.191],[92.653,11.215],[92.658,11.301],[92.592,11.293],[92.545,11.34],[92.541,11.378],[92.575,11.464],[92.537,11.473],[92.498,11.522],[92.489,11.597]],[[92.745,13.019],[92.744,13.019],[92.745,13.018],[92.745,13.019]]],[[[92.672,9.225],[92.751,9.298],[92.789,9.303],[92.864,9.235],[92.877,9.124],[92.826,9.073],[92.727,9.072],[92.677,9.118],[92.672,9.225]]],[[[92.4,10.853],[92.478,10.933],[92.553,10.944],[92.63,10.882],[92.644,10.807],[92.669,10.779],[92.667,10.653],[92.619,10.596],[92.619,10.539],[92.542,10.46],[92.475,10.462],[92.43,10.489],[92.375,10.479],[92.34,10.511],[92.36,10.614],[92.337,10.652],[92.335,10.8],[92.365,10.842],[92.4,10.853]]],[[[92.162,11.572],[92.167,11.606],[92.192,11.629],[92.296,11.623],[92.328,11.592],[92.335,11.514],[92.303,11.473],[92.26,11.466],[92.186,11.5],[92.162,11.572]]],[[[73.616,10.835],[73.648,10.864],[73.713,10.86],[73.744,10.838],[73.751,10.8],[73.719,10.765],[73.648,10.76],[73.613,10.791],[73.616,10.835]]],[[[73.612,10.127],[73.615,10.172],[73.636,10.198],[73.674,10.203],[73.705,10.18],[73.716,10.133],[73.695,10.04],[73.67,10.012],[73.628,10.012],[73.591,10.049],[73.588,10.084],[73.612,10.127]]],[[[72.98,8.31],[73.075,8.373],[73.111,8.362],[73.129,8.333],[73.106,8.252],[73.041,8.214],[72.992,8.227],[72.969,8.268],[72.98,8.31]]],[[[72.952,11.481],[72.964,11.531],[73.009,11.545],[73.041,11.524],[73.062,11.459],[73.038,11.427],[73.0,11.419],[72.971,11.435],[72.952,11.481]]],[[[72.669,11.111],[72.676,11.153],[72.726,11.184],[72.759,11.283],[72.808,11.314],[72.852,11.299],[72.862,11.245],[72.755,11.078],[72.7,11.067],[72.669,11.111]]],[[[72.736,11.659],[72.698,11.63],[72.65,11.649],[72.641,11.692],[72.669,11.741],[72.706,11.752],[72.739,11.733],[72.75,11.701],[72.736,11.659]]],[[[72.614,10.499],[72.563,10.496],[72.536,10.539],[72.569,10.608],[72.607,10.628],[72.649,10.613],[72.668,10.568],[72.657,10.531],[72.614,10.499]]],[[[72.578,10.798],[72.574,10.755],[72.543,10.731],[72.505,10.737],[72.474,10.774],[72.48,10.812],[72.512,10.834],[72.553,10.829],[72.578,10.798]]],[[[72.237,10.953],[72.262,10.988],[72.3,10.993],[72.33,10.969],[72.339,10.922],[72.315,10.892],[72.272,10.886],[72.242,10.91],[72.237,10.953]]],[[[72.234,10.014],[72.229,10.056],[72.253,10.085],[72.295,10.094],[72.33,10.07],[72.335,10.033],[72.308,9.989],[72.265,9.985],[72.234,10.014]]],[[[72.18,10.927],[72.227,10.924],[72.25,10.883],[72.235,10.822],[72.18,10.791],[72.138,10.813],[72.126,10.871],[72.14,10.906],[72.18,10.927]]],[[[72.206,11.543],[72.168,11.545],[72.141,11.578],[72.145,11.629],[72.179,11.657],[72.221,11.647],[72.248,11.605],[72.239,11.564],[72.206,11.543]]]]}}]}